     2              NAVIGATION DATA                         RINEX VERSION / TYPE
CCRINEXN V1.6.0 UX  CDDIS               06-JUL-23 20:42     PGM / RUN BY / DATE 
IGS BROADCAST EPHEMERIS FILE                                COMMENT             
    0.1397D-07  0.2235D-07 -0.5960D-07 -0.1192D-06          ION ALPHA           
    0.1126D+06  0.1638D+06 -0.6554D+05 -0.4588D+06          ION BETA            
    0.372529029846D-08 0.168753899743D-13   589824     2269 DELTA-UTC: A0,A1,T,W
    18                                                      LEAP SECONDS        
                                                            END OF HEADER       
28 23  7  6  6  0  0.0 0.833040103316D-04-0.795807864051D-12 0.000000000000D+00
    0.100000000000D+03 0.223750000000D+02 0.495949229705D-08 0.118519101240D+01
    0.127032399178D-05 0.633130897768D-03 0.836513936520D-05 0.515369799042D+04
    0.367200000000D+06-0.167638063431D-07-0.155218408382D+01 0.260770320892D-07
    0.961035733487D+00 0.218625000000D+03 0.167871510886D+01-0.805069248651D-08
    0.670742224820D-09 0.100000000000D+01 0.226900000000D+04 0.000000000000D+00
    0.200000000000D+01 0.000000000000D+00-0.977888703346D-08 0.100000000000D+03
    0.360079000000D+06 0.400000000000D+01 0.000000000000D+00 0.000000000000D+00
29 23  7  6  6  0  0.0-0.604806002229D-03-0.102318153950D-11 0.000000000000D+00
    0.840000000000D+02 0.895937500000D+02 0.387123268095D-08-0.747521969382D+00
    0.459700822830D-05 0.261446088552D-02 0.111274421215D-04 0.515374711800D+04
    0.367200000000D+06-0.316649675369D-07 0.652705944760D+00-0.391155481338D-07
    0.976225845348D+00 0.174656250000D+03 0.246226866861D+01-0.761603152400D-08
   -0.341085636157D-09 0.100000000000D+01 0.226900000000D+04 0.000000000000D+00
    0.282842707634D+01 0.000000000000D+00-0.102445483208D-07 0.840000000000D+02
    0.360026000000D+06 0.400000000000D+01 0.000000000000D+00 0.000000000000D+00
30 23  7  6  6  0  0.0-0.506285112351D-03 0.261479726760D-11 0.000000000000D+00
    0.990000000000D+02 0.252187500000D+02 0.545772733625D-08 0.260550973643D+01
    0.137276947498D-05 0.658124964684D-02 0.777281820774D-05 0.515356849670D+04
    0.367200000000D+06-0.931322574615D-07-0.150979365962D+01-0.152736902237D-06
    0.935007244862D+00 0.219093750000D+03-0.256486858336D+01-0.827177312398D-08
    0.585024368613D-09 0.100000000000D+01 0.226900000000D+04 0.000000000000D+00
    0.200000000000D+01 0.000000000000D+00 0.372529029846D-08 0.990000000000D+02
    0.366370000000D+06 0.400000000000D+01 0.000000000000D+00 0.000000000000D+00
31 23  7  6  6  0  0.0-0.219539273530D-03-0.682121026330D-12 0.000000000000D+00
    0.910000000000D+02 0.185625000000D+02 0.514021411055D-08 0.178442559706D+01
    0.110454857349D-05 0.103222909383D-01 0.816583633423D-05 0.515358122063D+04
    0.367200000000D+06-0.208616256714D-06-0.149512766888D+01 0.189989805222D-06
    0.953946230592D+00 0.221343750000D+03 0.549555533937D+00-0.824248618978D-08
    0.579309844866D-09 0.100000000000D+01 0.226900000000D+04 0.000000000000D+00
    0.200000000000D+01 0.000000000000D+00-0.135041773319D-07 0.910000000000D+02
    0.360080000000D+06 0.400000000000D+01 0.000000000000D+00 0.000000000000D+00
32 23  7  6  6  0  0.0-0.515325460583D-03-0.795807864051D-11 0.000000000000D+00
    0.830000000000D+02-0.103843750000D+03 0.430482217027D-08-0.130814768092D+00
   -0.539608299732D-05 0.695648253895D-02 0.121891498566D-04 0.515377323151D+04
    0.367200000000D+06-0.167638063431D-07-0.257386095061D+01 0.122934579849D-06
    0.960179156916D+00 0.148250000000D+03-0.220231959959D+01-0.794783105907D-08
    0.298226708054D-09 0.100000000000D+01 0.226900000000D+04 0.000000000000D+00
    0.200000000000D+01 0.000000000000D+00 0.465661287308D-09 0.830000000000D+02
    0.360028000000D+06 0.400000000000D+01 0.000000000000D+00 0.000000000000D+00
22 23  7  6  7 59 44.0 0.508646015078D-03 0.557065504836D-11 0.000000000000D+00
    0.240000000000D+02-0.823437500000D+02 0.417910264783D-08 0.118639505103D+00
   -0.449083745480D-05 0.143834578339D-01 0.123642385006D-04 0.515365930939D+04
    0.374384000000D+06-0.296160578728D-06-0.248175760328D+01 0.931322574615D-07
    0.963030227720D+00 0.146062500000D+03-0.179936274844D+01-0.799961893052D-08
    0.319299014371D-09 0.100000000000D+01 0.226900000000D+04 0.000000000000D+00
    0.200000000000D+01 0.630000000000D+02-0.838190317154D-08 0.240000000000D+02
    0.372126000000D+06 0.400000000000D+01 0.000000000000D+00 0.000000000000D+00
25 23  7  6  7 59 44.0 0.454363413155D-03 0.238742359215D-11 0.000000000000D+00
    0.200000000000D+01-0.152187500000D+02 0.510949854541D-08 0.282509639825D+01
   -0.940635800362D-06 0.110639731865D-01 0.630505383015D-05 0.515370554543D+04
    0.374384000000D+06-0.465661287308D-07-0.483054546212D+00-0.236555933952D-06
    0.952800168866D+00 0.250156250000D+03 0.105164990336D+01-0.809319425688D-08
   -0.480019994759D-09 0.100000000000D+01 0.226900000000D+04 0.000000000000D+00
    0.200000000000D+01 0.000000000000D+00 0.558793544769D-08 0.200000000000D+01
    0.367938000000D+06 0.400000000000D+01 0.000000000000D+00 0.000000000000D+00
29 23  7  6  7 59 44.0-0.604814384133D-03-0.102318153950D-11 0.000000000000D+00
    0.400000000000D+01 0.729062500000D+02 0.386837541908D-08 0.300348445621D+00
    0.358372926712D-05 0.261671212502D-02 0.111032277346D-04 0.515375136185D+04
    0.374384000000D+06 0.316649675369D-07 0.652651380841D+00-0.111758708954D-07
    0.976223092136D+00 0.175406250000D+03 0.246219484098D+01-0.765853329437D-08
   -0.386087510666D-09 0.100000000000D+01 0.226900000000D+04 0.000000000000D+00
    0.200000000000D+01 0.000000000000D+00-0.102445483208D-07 0.400000000000D+01
    0.373296000000D+06 0.400000000000D+01 0.000000000000D+00 0.000000000000D+00
30 23  7  6  7 59 44.0-0.506264157593D-03 0.261479726760D-11 0.000000000000D+00
    0.150000000000D+02 0.194062500000D+02 0.544022660728D-08-0.262972791806D+01
    0.808387994766D-06 0.658231985290D-02 0.811554491520D-05 0.515356648445D+04
    0.374384000000D+06 0.521540641785D-07-0.150985327938D+01-0.197440385819D-06
    0.935011482936D+00 0.213375000000D+03-0.256489725948D+01-0.829927426951D-08
    0.637169397806D-09 0.100000000000D+01 0.226900000000D+04 0.000000000000D+00
    0.200000000000D+01 0.000000000000D+00 0.372529029846D-08 0.150000000000D+02
    0.367489000000D+06 0.400000000000D+01 0.000000000000D+00 0.000000000000D+00
31 23  7  6  7 59 44.0-0.219544861466D-03-0.682121026330D-12 0.000000000000D+00
    0.700000000000D+01 0.238125000000D+02 0.503020952842D-08 0.283238390126D+01
    0.124238431454D-05 0.103224028135D-01 0.813789665699D-05 0.515358036041D+04
    0.374384000000D+06-0.894069671631D-07-0.149518638017D+01-0.856816768646D-07
    0.953951911103D+00 0.220656250000D+03 0.549505864942D+00-0.797997525514D-08
    0.665027701073D-09 0.100000000000D+01 0.226900000000D+04 0.000000000000D+00
    0.200000000000D+01 0.000000000000D+00-0.135041773319D-07 0.700000000000D+01
    0.367663000000D+06 0.400000000000D+01 0.000000000000D+00 0.000000000000D+00
 1 23  7  6  8  0  0.0 0.174325890839D-03-0.204636307899D-11 0.000000000000D+00
    0.880000000000D+02 0.122156250000D+03 0.381051586614D-08-0.190532875430D+01
    0.634789466858D-05 0.129405724583D-01 0.389106571674D-05 0.515364303780D+04
    0.374400000000D+06 0.212341547012D-06 0.164210717411D+01-0.163912773132D-06
    0.989856169083D+00 0.320906250000D+03 0.983609639084D+00-0.784889836669D-08
    0.270368404786D-09 0.100000000000D+01 0.226900000000D+04 0.000000000000D+00
    0.280000000000D+01 0.000000000000D+00 0.465661287308D-08 0.880000000000D+02
    0.367218000000D+06 0.400000000000D+01 0.000000000000D+00 0.000000000000D+00
 2 23  7  6  8  0  0.0-0.578954350203D-03 0.375166564481D-11 0.000000000000D+00
    0.910000000000D+02 0.125218750000D+03 0.443482758551D-08 0.762245700033D+00
    0.623799860477D-05 0.159221244976D-01 0.547245144844D-05 0.515355551338D+04
    0.374400000000D+06-0.102445483208D-06 0.154257253941D+01-0.240281224251D-06
    0.967292354695D+00 0.284343750000D+03-0.137362642684D+01-0.849571102332D-08
    0.864321716755D-10 0.100000000000D+01 0.226900000000D+04 0.000000000000D+00
    0.200000000000D+01 0.000000000000D+00-0.176951289177D-07 0.910000000000D+02
    0.367218000000D+06 0.400000000000D+01 0.000000000000D+00 0.000000000000D+00
 3 23  7  6  8  0  0.0-0.243792776018D-03 0.151203494170D-10 0.000000000000D+00
    0.670000000000D+02-0.100156250000D+03 0.412624330317D-08-0.307970374918D+01
   -0.508315861225D-05 0.500144157559D-02 0.212155282497D-05 0.515364190865D+04
    0.374400000000D+06-0.558793544769D-08 0.267264765674D+01 0.670552253723D-07
    0.979782254789D+00 0.348906250000D+03 0.105859413995D+01-0.814498212834D-08
   -0.157863718515D-09 0.100000000000D+01 0.226900000000D+04 0.000000000000D+00
    0.200000000000D+01 0.000000000000D+00 0.186264514923D-08 0.670000000000D+02
    0.367273000000D+06 0.400000000000D+01 0.000000000000D+00 0.000000000000D+00
 4 23  7  6  8  0  0.0 0.878716818988D-04 0.106865627458D-10 0.000000000000D+00
    0.172000000000D+03-0.105593750000D+03 0.409767068443D-08-0.149132341332D+00
   -0.531785190105D-05 0.243488117121D-02 0.119209289551D-04 0.515365875435D+04
    0.374400000000D+06 0.540167093277D-07-0.253026105743D+01 0.204890966415D-07
    0.963229924815D+00 0.149531250000D+03-0.299284097086D+01-0.783175479545D-08
    0.320727645308D-09 0.100000000000D+01 0.226900000000D+04 0.000000000000D+00
    0.200000000000D+01 0.000000000000D+00-0.465661287308D-08 0.428000000000D+03
    0.367274000000D+06 0.400000000000D+01 0.000000000000D+00 0.000000000000D+00
